NORAD_CAT_ID,OBJECT_NAME,OBJECT_TYPE,EPOCH,MEAN_MOTION,ECCENTRICITY,INCLINATION,RA_OF_ASC_NODE,ARG_OF_PERICENTER,MEAN_ANOMALY,BSTAR,MEAN_MOTION_DOT,MEAN_MOTION_DDOT,TLE_LINE0,TLE_LINE1,TLE_LINE2,SEMIMAJOR_AXIS,PERIOD,APOGEE,PERIGEE,DECAYED
49768.0,STARLINK-3196,PAYLOAD,2022-05-21 06:00:00,15.08807701,0.0001683,53.2172,252.0693,52.1266,202.5283,0.0036091,0.00057569,0.0,0 STARLINK-3196,1 49768U 21115AW  22141.25001157  .00057569  00000-0  36091-2 0  9998,2 49768  53.2172 252.0693 0001683  52.1266 202.5283 15.08807701 27180,6917.979,95.44,541.008,538.68,0.0
49768.0,STARLINK-3196,PAYLOAD,2022-05-21 14:00:01,15.08847766,0.0001814,53.2171,250.5747,47.4423,218.852,-0.00078443,-0.00012753,0.0,0 STARLINK-3196,1 49768U 21115AW  22141.58335648 -.00012753  00000-0 -78443-3 0  9995,2 49768  53.2171 250.5747 0001814  47.4423 218.8520 15.08847766  1305,6917.857,95.437,540.977,538.467,0.0
49768.0,STARLINK-3196,PAYLOAD,2022-05-21 22:00:00,15.0885638,0.0001737,53.2166,249.0779,44.8506,232.9902,-0.0012684,-0.00020427,0.0,0 STARLINK-3196,1 49768U 21115AW  22141.91667824 -.00020427  00000-0 -12684-2 0  9997,2 49768  53.2166 249.0779 0001737  44.8506 232.9902 15.08856380 27282,6917.83,95.437,540.8969999999998,538.494,0.0
49768.0,STARLINK-3196,PAYLOAD,2022-05-22 14:00:01,15.088471599999998,0.0001804,53.2166,246.0858,47.4923,253.5583,-0.0020782,-0.00033217,0.0,0 STARLINK-3196,1 49768U 21115AW  22142.58334491 -.00033217  00000-0 -20782-2 0  9991,2 49768  53.2166 246.0858 0001804  47.4923 253.5583 15.08847160  1309,6917.859,95.437,540.971,538.476,0.0
49768.0,STARLINK-3196,PAYLOAD,2022-05-22 22:00:01,15.08858064,0.0001771999999999,53.2161,244.5886,46.3057,266.4134,-0.003855,-0.00061151,0.0,0 STARLINK-3196,1 49768U 21115AW  22142.91668981 -.00061151  00000-0 -38550-2 0  9992,2 49768  53.2161 244.5886 0001772  46.3057 266.4134 15.08858064 27430,6917.825,95.436,540.9159999999998,538.464,0.0
49768.0,STARLINK-3196,PAYLOAD,2022-05-23 14:00:01,15.08838795,0.0001816,53.2162,241.5967,47.6016,288.2057,-0.0017530999999999,-0.0002808,0.0,0 STARLINK-3196,1 49768U 21115AW  22143.58334491 -.00028080  00000-0 -17531-2 0  9992,2 49768  53.2162 241.5967 0001816  47.6016 288.2057 15.08838795  1309,6917.884,95.438,541.005,538.493,0.0
49768.0,STARLINK-3196,PAYLOAD,2022-05-23 16:00:00,15.08829467,0.0001804,53.2163,241.2229,45.5807,23.1259,-0.0010635,-0.00017169,0.0,0 STARLINK-3196,1 49768U 21115AW  22143.66667824 -.00017169  00000-0 -10635-2 0  9994,2 49768  53.2163 241.2229 0001804  45.5807  23.1259 15.08829467 27540,6917.913000000001,95.438,541.026,538.53,0.0
49768.0,STARLINK-3196,PAYLOAD,2022-05-23 22:00:01,15.08839885,0.0001673,53.2159,240.0994,43.2523,304.2042,-0.0046247,-0.00073144,0.0,0 STARLINK-3196,1 49768U 21115AW  22143.91668981 -.00073144  00000-0 -46247-2 0  9990,2 49768  53.2159 240.0994 0001673  43.2523 304.2042 15.08839885  1309,6917.880999999999,95.438,540.903,538.5880000000002,0.0
49768.0,STARLINK-3196,PAYLOAD,2022-05-24 13:57:16,15.08826894,0.0001674,53.2189,237.1146,47.5364,312.5769,-0.0001395999999999,-2.508e-05,0.0,0 STARLINK-3196,1 49768U 21115AW  22144.58143790 -.00002508  00000-0 -13960-3 0  9993,2 49768  53.2189 237.1146 0001674  47.5364 312.5769 15.08826894 26579,6917.92,95.438,540.944,538.627,0.0
49768.0,STARLINK-3196,PAYLOAD,2022-05-24 22:00:00,15.08854692,0.0001713,53.2163,235.6103,42.2411,339.8335,-0.002827,-0.00045017,0.0,0 STARLINK-3196,1 49768U 21115AW  22144.91667824 -.00045017  00000-0 -28270-2 0  9990,2 49768  53.2163 235.6103 0001713  42.2411 339.8335 15.08854692 27733,6917.835,95.437,540.886,538.515,0.0
49768.0,STARLINK-3196,PAYLOAD,2022-05-25 06:00:00,15.08850958,0.0001833,53.2172,234.1053,46.2008,347.5374,-0.0014158,-0.00022757,0.0,0 STARLINK-3196,1 49768U 21115AW  22145.25001157 -.00022757  00000-0 -14158-2 0  9995,2 49768  53.2172 234.1053 0001833  46.2008 347.5374 15.08850958 27785,6917.847,95.437,540.98,538.444,0.0
49768.0,STARLINK-3196,PAYLOAD,2022-05-25 14:00:01,15.08850187,0.0001979,53.2168,232.6184,45.9532,359.351,-0.00046069,-7.615e-05,0.0,0 STARLINK-3196,1 49768U 21115AW  22145.58334491 -.00007615  00000-0 -46069-3 0  9994,2 49768  53.2168 232.6184 0001979  45.9532 359.3510 15.08850187  1304,6917.849,95.437,541.0830000000002,538.345,0.0
49768.0,STARLINK-3196,PAYLOAD,2022-05-25 22:00:00,15.08851793,0.0001842,53.2169,231.1209,44.8672,12.0472,-0.0013332,-0.0002145,0.0,0 STARLINK-3196,1 49768U 21115AW  22145.91667824 -.00021450  00000-0 -13332-2 0  9999,2 49768  53.2169 231.1209 0001842  44.8672  12.0472 15.08851793  1303,6917.844,95.437,540.984,538.435,0.0
49768.0,STARLINK-3196,PAYLOAD,2022-05-26 06:00:00,15.08856656,0.0001749,53.2173,229.6239,47.9256,20.58,-0.00042593,-7.064e-05,0.0,0 STARLINK-3196,1 49768U 21115AW  22146.25001157 -.00007064  00000-0 -42593-3 0  9995,2 49768  53.2173 229.6239 0001749  47.9256  20.5800 15.08856656 27930,6917.829000000002,95.437,540.904,538.485,0.0
49768.0,STARLINK-3196,PAYLOAD,2022-05-26 12:03:26,15.08834941,0.0001856,53.2184,228.4917,48.1848,311.9302,0.0002107,3.066e-05,0.0,0 STARLINK-3196,1 49768U 21115AW  22146.50238865  .00003066  00000-0  21070-3 0  9994,2 49768  53.2184 228.4917 0001856  48.1848 311.9302 15.08834941 26869,6917.896,95.438,541.045,538.477,0.0
49768.0,STARLINK-3196,PAYLOAD,2022-05-26 22:00:00,15.08834966,0.0001720999999999,53.2174,226.6318,39.6523,52.0469,-0.0023291,-0.0003716,0.0,0 STARLINK-3196,1 49768U 21115AW  22146.91667824 -.00037160  00000-0 -23291-2 0  9990,2 49768  53.2174 226.6318 0001721  39.6523  52.0469 15.08834966 28034,6917.896,95.438,540.951,538.57,0.0
49768.0,STARLINK-3196,PAYLOAD,2022-05-27 14:00:01,15.08811745,0.0001846,53.2176,223.6405,37.9369,76.9051,0.0019979,0.00031627,0.0,0 STARLINK-3196,1 49768U 21115AW  22147.58334491  .00031627  00000-0  19979-2 0  9993,2 49768  53.2176 223.6405 0001846  37.9369  76.9051 15.08811745  1300,6917.967,95.439,541.109,538.555,0.0
49768.0,STARLINK-3196,PAYLOAD,2022-05-27 16:00:00,15.08804273,0.0001859,53.2175,223.2665,36.2504,171.4874,0.0035983,0.0005739,0.0,0 STARLINK-3196,1 49768U 21115AW  22147.66667824  .00057390  00000-0  35983-2 0  9999,2 49768  53.2175 223.2665 0001859  36.2504 171.4874 15.08804273 28154,6917.99,95.44,541.141,538.569,0.0
49768.0,STARLINK-3196,PAYLOAD,2022-05-27 22:00:01,15.08855254,0.0001853,53.2175,222.1379,34.9351,91.5405,0.0035995,0.0005748999999999,0.0,0 STARLINK-3196,1 49768U 21115AW  22147.91668981  .00057490  00000-0  35995-2 0  9996,2 49768  53.2175 222.1379 0001853  34.9351  91.5405 15.08855254  1308,6917.834,95.437,540.981,538.4169999999998,0.0
49768.0,STARLINK-3196,PAYLOAD,2022-05-28 06:00:02,15.08852623,0.0001662,53.2178,220.6463,43.43600000000001,94.6333,0.00056471,8.714e-05,0.0,0 STARLINK-3196,1 49768U 21115AW  22148.25002315  .00008714  00000-0  56471-3 0  9995,2 49768  53.2178 220.6463 0001662  43.4360  94.6333 15.08852623 28233,6917.842,95.437,540.857,538.557,0.0
49768.0,STARLINK-3196,PAYLOAD,2022-05-28 14:00:01,15.08852796,0.0001893,53.2175,219.1517,38.325,111.302,0.0012264,0.00019291,0.0,0 STARLINK-3196,1 49768U 21115AW  22148.58334491  .00019291  00000-0  12264-2 0  9997,2 49768  53.2175 219.1517 0001893  38.3250 111.3020 15.08852796  1300,6917.840999999999,95.437,541.016,538.3969999999998,0.0
49768.0,STARLINK-3196,PAYLOAD,2022-05-28 22:00:00,15.08859695,0.0001771999999999,53.2172,217.654,42.1521,119.0975,-0.00076224,-0.00012405,0.0,0 STARLINK-3196,1 49768U 21115AW  22148.91667824 -.00012405  00000-0 -76224-3 0  9992,2 49768  53.2172 217.6540 0001772  42.1521 119.0975 15.08859695  1305,6917.82,95.436,540.911,538.4590000000002,0.0
49768.0,STARLINK-3196,PAYLOAD,2022-05-29 06:00:02,15.0885595,0.0001733,53.2174,216.1576,46.6344,126.2676,-0.00044656,-7.391e-05,0.0,0 STARLINK-3196,1 49768U 21115AW  22149.25002315 -.00007391  00000-0 -44656-3 0  9990,2 49768  53.2174 216.1576 0001733  46.6344 126.2676 15.08855950 28384,6917.831999999999,95.437,540.895,538.498,0.0
49768.0,STARLINK-3196,PAYLOAD,2022-05-29 14:00:01,15.08837447,0.0001912,53.217,214.6629,40.0584,144.3966,-0.0016640999999999,-0.00026673,0.0,0 STARLINK-3196,1 49768U 21115AW  22149.58334491 -.00026673  00000-0 -16641-2 0  9995,2 49768  53.2170 214.6629 0001912  40.0584 144.3966 15.08837447  1302,6917.888000000001,95.438,541.076,538.43,0.0
49768.0,STARLINK-3196,PAYLOAD,2022-05-29 21:08:06,15.08835247,0.0001862,53.2181,213.3272,49.3492,310.7662,0.00010889,1.445e-05,0.0,0 STARLINK-3196,1 49768U 21115AW  22149.88063537  .00001445  00000-0  10889-3 0  9995,2 49768  53.2181 213.3272 0001862  49.3492 310.7662 15.08835247 27371,6917.895,95.438,541.048,538.472,0.0
49768.0,STARLINK-3196,PAYLOAD,2022-05-29 22:00:00,15.08807831,0.0001764,53.2165,213.1651,43.3505,152.6977,-0.00063826,-0.00010423,0.0,0 STARLINK-3196,1 49768U 21115AW  22149.91667824 -.00010423  00000-0 -63826-3 0  9995,2 49768  53.2165 213.1651 0001764  43.3505 152.6977 15.08807831 28485,6917.979,95.44,541.064,538.623,0.0
49768.0,STARLINK-3196,PAYLOAD,2022-05-30 13:01:59,15.08825528,0.000179,53.2183,210.3535,45.5939,314.5199,-0.00012268,-2.239e-05,0.0,0 STARLINK-3196,1 49768U 21115AW  22150.54305125 -.00002239  00000-0 -12268-3 0  9999,2 49768  53.2183 210.3535 0001790  45.5939 314.5199 15.08825528 27475,6917.925,95.438,541.028,538.5509999999998,0.0
49768.0,STARLINK-3196,PAYLOAD,2022-05-30 14:00:01,15.08809951,0.0001891,53.2161,210.1743,39.6688,179.4921,0.0034788,0.00055468,0.0,0 STARLINK-3196,1 49768U 21115AW  22150.58334491  .00055468  00000-0  34788-2 0  9991,2 49768  53.2161 210.1743 0001891  39.6688 179.4921 15.08809951 28594,6917.972,95.439,541.145,538.529,0.0
49768.0,STARLINK-3196,PAYLOAD,2022-05-30 20:58:54,15.08839411,0.0001739,53.2179,208.8667,43.5948,316.5181,-4.2989e-05,-9.72e-06,0.0,0 STARLINK-3196,1 49768U 21115AW  22150.87424057 -.00000972  00000-0 -42989-4 0  9997,2 49768  53.2179 208.8667 0001739  43.5948 316.5181 15.08839411 27524,6917.882,95.438,540.95,538.544,0.0
